[{"OBJECT_NAME":"QIANFAN-35","OBJECT_ID":"2024-185S","EPOCH":"2026-03-09T22:26:33.581760","MEAN_MOTION":14.28128705,"ECCENTRICITY":0.00069627,"INCLINATION":88.9749,"RA_OF_ASC_NODE":66.6226,"ARG_OF_PERICENTER":20.1226,"MEAN_ANOMALY":340.0242,"EPHEMERIS_TYPE":0,"CLASSIFICATION_TYPE":"U","NORAD_CAT_ID":61568,"ELEMENT_SET_NO":999,"REV_AT_EPOCH":8262,"BSTAR":0.00043408229,"MEAN_MOTION_DOT":1.093e-5,"MEAN_MOTION_DDOT":0},{"OBJECT_NAME":"CZ-6A DEB","OBJECT_ID":"2024-140XF","EPOCH":"2026-03-09T22:37:13.904256","MEAN_MOTION":14.31119645,"ECCENTRICITY":0.00187166,"INCLINATION":88.6793,"RA_OF_ASC_NODE":263.0748,"ARG_OF_PERICENTER":86.1128,"MEAN_ANOMALY":274.2208,"EPHEMERIS_TYPE":0,"CLASSIFICATION_TYPE":"U","NORAD_CAT_ID":61390,"ELEMENT_SET_NO":999,"REV_AT_EPOCH":7867,"BSTAR":0.0013803761,"MEAN_MOTION_DOT":3.661e-5,"MEAN_MOTION_DDOT":0}]
